<?xml version="1.0" encoding="UTF-8"?>
<gpx version="1.1" creator="CD Bomberos Madrid" xmlns="http://www.topografix.com/GPX/1/1">
<trk><name>Etapa 2 · Cercedilla – Madrid por Navacerrada y Morcuera</name><trkseg>
<trkpt lat="40.665000" lon="-4.053500"><ele>1180.0</ele></trkpt>
<trkpt lat="40.666255" lon="-4.053815"><ele>1186.2</ele></trkpt>
<trkpt lat="40.666775" lon="-4.054597"><ele>1184.7</ele></trkpt>
<trkpt lat="40.666336" lon="-4.055429"><ele>1179.4</ele></trkpt>
<trkpt lat="40.665553" lon="-4.055840"><ele>1180.9</ele></trkpt>
<trkpt lat="40.665404" lon="-4.055522"><ele>1190.8</ele></trkpt>
<trkpt lat="40.666490" lon="-4.054486"><ele>1199.5</ele></trkpt>
<trkpt lat="40.668572" lon="-4.053047"><ele>1200.0</ele></trkpt>
<trkpt lat="40.670745" lon="-4.051688"><ele>1198.2</ele></trkpt>
<trkpt lat="40.672121" lon="-4.050828"><ele>1204.3</ele></trkpt>
<trkpt lat="40.672491" lon="-4.050627"><ele>1217.5</ele></trkpt>
<trkpt lat="40.672483" lon="-4.050916"><ele>1227.5</ele></trkpt>
<trkpt lat="40.673076" lon="-4.051276"><ele>1229.3</ele></trkpt>
<trkpt lat="40.674856" lon="-4.051233"><ele>1230.5</ele></trkpt>
<trkpt lat="40.677568" lon="-4.050491"><ele>1240.1</ele></trkpt>
<trkpt lat="40.680302" lon="-4.049064"><ele>1255.4</ele></trkpt>
<trkpt lat="40.682175" lon="-4.047277"><ele>1265.7</ele></trkpt>
<trkpt lat="40.682998" lon="-4.045612"><ele>1268.0</ele></trkpt>
<trkpt lat="40.683408" lon="-4.044484"><ele>1271.5</ele></trkpt>
<trkpt lat="40.684384" lon="-4.044046"><ele>1283.8</ele></trkpt>
<trkpt lat="40.686501" lon="-4.044122"><ele>1299.8</ele></trkpt>
<trkpt lat="40.689485" lon="-4.044286"><ele>1309.3</ele></trkpt>
<trkpt lat="40.692422" lon="-4.044070"><ele>1311.6</ele></trkpt>
<trkpt lat="40.694435" lon="-4.043182"><ele>1316.6</ele></trkpt>
<trkpt lat="40.695352" lon="-4.041644"><ele>1330.4</ele></trkpt>
<trkpt lat="40.695822" lon="-4.039787"><ele>1346.0</ele></trkpt>
<trkpt lat="40.696825" lon="-4.038095"><ele>1353.8</ele></trkpt>
<trkpt lat="40.698920" lon="-4.036978"><ele>1355.4</ele></trkpt>
<trkpt lat="40.701820" lon="-4.036583"><ele>1361.3</ele></trkpt>
<trkpt lat="40.704601" lon="-4.036723"><ele>1375.5</ele></trkpt>
<trkpt lat="40.706397" lon="-4.036971"><ele>1389.4</ele></trkpt>
<trkpt lat="40.707050" lon="-4.036861"><ele>1394.5</ele></trkpt>
<trkpt lat="40.707224" lon="-4.036104"><ele>1394.8</ele></trkpt>
<trkpt lat="40.707896" lon="-4.034735"><ele>1400.8</ele></trkpt>
<trkpt lat="40.709612" lon="-4.033088"><ele>1414.1</ele></trkpt>
<trkpt lat="40.712068" lon="-4.031648"><ele>1425.1</ele></trkpt>
<trkpt lat="40.714335" lon="-4.030821"><ele>1426.9</ele></trkpt>
<trkpt lat="40.715556" lon="-4.030746"><ele>1425.3</ele></trkpt>
<trkpt lat="40.715589" lon="-4.031230"><ele>1430.5</ele></trkpt>
<trkpt lat="40.715109" lon="-4.031841"><ele>1441.7</ele></trkpt>
<trkpt lat="40.715092" lon="-4.032114"><ele>1448.7</ele></trkpt>
<trkpt lat="40.716071" lon="-4.031769"><ele>1446.3</ele></trkpt>
<trkpt lat="40.717726" lon="-4.030846"><ele>1442.3</ele></trkpt>
<trkpt lat="40.719122" lon="-4.029688"><ele>1445.7</ele></trkpt>
<trkpt lat="40.719410" lon="-4.028780"><ele>1453.6</ele></trkpt>
<trkpt lat="40.718546" lon="-4.028492"><ele>1455.8</ele></trkpt>
<trkpt lat="40.717481" lon="-4.028855"><ele>1451.0</ele></trkpt>
<trkpt lat="40.717207" lon="-4.029662"><ele>1448.3</ele></trkpt>
<trkpt lat="40.718242" lon="-4.030476"><ele>1455.4</ele></trkpt>
<trkpt lat="40.720247" lon="-4.030832"><ele>1467.2</ele></trkpt>
<trkpt lat="40.722280" lon="-4.030459"><ele>1473.3</ele></trkpt>
<trkpt lat="40.723500" lon="-4.029402"><ele>1473.0</ele></trkpt>
<trkpt lat="40.723795" lon="-4.028010"><ele>1476.4</ele></trkpt>
<trkpt lat="40.723863" lon="-4.026767"><ele>1489.4</ele></trkpt>
<trkpt lat="40.724674" lon="-4.026070"><ele>1505.0</ele></trkpt>
<trkpt lat="40.726730" lon="-4.026040"><ele>1513.6</ele></trkpt>
<trkpt lat="40.729679" lon="-4.026469"><ele>1516.8</ele></trkpt>
<trkpt lat="40.732572" lon="-4.026919"><ele>1525.1</ele></trkpt>
<trkpt lat="40.734578" lon="-4.026927"><ele>1542.4</ele></trkpt>
<trkpt lat="40.735600" lon="-4.026226"><ele>1560.2</ele></trkpt>
<trkpt lat="40.736349" lon="-4.024872"><ele>1569.9</ele></trkpt>
<trkpt lat="40.737792" lon="-4.023219"><ele>1575.5</ele></trkpt>
<trkpt lat="40.740418" lon="-4.021750"><ele>1587.4</ele></trkpt>
<trkpt lat="40.743858" lon="-4.020859"><ele>1607.4</ele></trkpt>
<trkpt lat="40.747159" lon="-4.020659"><ele>1625.6</ele></trkpt>
<trkpt lat="40.749498" lon="-4.020934"><ele>1635.2</ele></trkpt>
<trkpt lat="40.750796" lon="-4.021242"><ele>1642.1</ele></trkpt>
<trkpt lat="40.751774" lon="-4.021124"><ele>1656.3</ele></trkpt>
<trkpt lat="40.753398" lon="-4.020320"><ele>1677.2</ele></trkpt>
<trkpt lat="40.756141" lon="-4.018892"><ele>1694.3</ele></trkpt>
<trkpt lat="40.759619" lon="-4.017200"><ele>1702.6</ele></trkpt>
<trkpt lat="40.762875" lon="-4.015730"><ele>1709.7</ele></trkpt>
<trkpt lat="40.765095" lon="-4.014868"><ele>1724.7</ele></trkpt>
<trkpt lat="40.766218" lon="-4.014720"><ele>1744.8</ele></trkpt>
<trkpt lat="40.766974" lon="-4.015064"><ele>1759.2</ele></trkpt>
<trkpt lat="40.768326" lon="-4.015454"><ele>1764.9</ele></trkpt>
<trkpt lat="40.770734" lon="-4.015433"><ele>1771.2</ele></trkpt>
<trkpt lat="40.773798" lon="-4.014748"><ele>1785.6</ele></trkpt>
<trkpt lat="40.776557" lon="-4.013470"><ele>1803.1</ele></trkpt>
<trkpt lat="40.778206" lon="-4.011963"><ele>1813.2</ele></trkpt>
<trkpt lat="40.778700" lon="-4.010714"><ele>1815.4</ele></trkpt>
<trkpt lat="40.778782" lon="-4.010105"><ele>1819.6</ele></trkpt>
<trkpt lat="40.779411" lon="-4.010232"><ele>1831.8</ele></trkpt>
<trkpt lat="40.781032" lon="-4.010868"><ele>1845.0</ele></trkpt>
<trkpt lat="40.783230" lon="-4.011562"><ele>1849.5</ele></trkpt>
<trkpt lat="40.785039" lon="-4.011861"><ele>1847.0</ele></trkpt>
<trkpt lat="40.785665" lon="-4.011518"><ele>1848.0</ele></trkpt>
<trkpt lat="40.785079" lon="-4.010613"><ele>1856.3</ele></trkpt>
<trkpt lat="40.784035" lon="-4.009515"><ele>1863.5</ele></trkpt>
<trkpt lat="40.783508" lon="-4.008697"><ele>1861.0</ele></trkpt>
<trkpt lat="40.784175" lon="-4.008362"><ele>1852.2</ele></trkpt>
<trkpt lat="40.785686" lon="-4.008550"><ele>1847.8</ele></trkpt>
<trkpt lat="40.787074" lon="-4.009029"><ele>1849.5</ele></trkpt>
<trkpt lat="40.787558" lon="-4.009356"><ele>1847.7</ele></trkpt>
<trkpt lat="40.787129" lon="-4.009081"><ele>1835.6</ele></trkpt>
<trkpt lat="40.786553" lon="-4.007973"><ele>1819.3</ele></trkpt>
<trkpt lat="40.786787" lon="-4.006124"><ele>1809.0</ele></trkpt>
<trkpt lat="40.788247" lon="-4.003915"><ele>1804.2</ele></trkpt>
<trkpt lat="40.790493" lon="-4.001836"><ele>1794.4</ele></trkpt>
<trkpt lat="40.792555" lon="-4.000266"><ele>1774.9</ele></trkpt>
<trkpt lat="40.793660" lon="-3.999292"><ele>1753.5</ele></trkpt>
<trkpt lat="40.793817" lon="-3.998674"><ele>1739.4</ele></trkpt>
<trkpt lat="40.793803" lon="-3.997966"><ele>1729.7</ele></trkpt>
<trkpt lat="40.794570" lon="-3.996722"><ele>1714.0</ele></trkpt>
<trkpt lat="40.796520" lon="-3.994717"><ele>1689.5</ele></trkpt>
<trkpt lat="40.799198" lon="-3.992051"><ele>1665.3</ele></trkpt>
<trkpt lat="40.801628" lon="-3.989111"><ele>1649.4</ele></trkpt>
<trkpt lat="40.803051" lon="-3.986387"><ele>1636.7</ele></trkpt>
<trkpt lat="40.803492" lon="-3.984251"><ele>1616.9</ele></trkpt>
<trkpt lat="40.803737" lon="-3.982783"><ele>1589.7</ele></trkpt>
<trkpt lat="40.804733" lon="-3.981737"><ele>1565.1</ele></trkpt>
<trkpt lat="40.806869" lon="-3.980663"><ele>1549.3</ele></trkpt>
<trkpt lat="40.809673" lon="-3.979119"><ele>1535.3</ele></trkpt>
<trkpt lat="40.812169" lon="-3.976886"><ele>1513.7</ele></trkpt>
<trkpt lat="40.813606" lon="-3.974074"><ele>1486.2</ele></trkpt>
<trkpt lat="40.814027" lon="-3.971072"><ele>1463.5</ele></trkpt>
<trkpt lat="40.814227" lon="-3.968372"><ele>1449.7</ele></trkpt>
<trkpt lat="40.815149" lon="-3.966340"><ele>1436.2</ele></trkpt>
<trkpt lat="40.817167" lon="-3.965048"><ele>1414.8</ele></trkpt>
<trkpt lat="40.819795" lon="-3.964243"><ele>1389.5</ele></trkpt>
<trkpt lat="40.822051" lon="-3.963472"><ele>1370.9</ele></trkpt>
<trkpt lat="40.823199" lon="-3.962297"><ele>1360.8</ele></trkpt>
<trkpt lat="40.823296" lon="-3.960506"><ele>1349.7</ele></trkpt>
<trkpt lat="40.823148" lon="-3.958215"><ele>1330.7</ele></trkpt>
<trkpt lat="40.823693" lon="-3.955822"><ele>1310.0</ele></trkpt>
<trkpt lat="40.825289" lon="-3.953815"><ele>1297.7</ele></trkpt>
<trkpt lat="40.827436" lon="-3.952557"><ele>1293.2</ele></trkpt>
<trkpt lat="40.829150" lon="-3.952109"><ele>1286.3</ele></trkpt>
<trkpt lat="40.829705" lon="-3.952214"><ele>1272.1</ele></trkpt>
<trkpt lat="40.829175" lon="-3.952416"><ele>1258.4</ele></trkpt>
<trkpt lat="40.828375" lon="-3.952279"><ele>1254.4</ele></trkpt>
<trkpt lat="40.828240" lon="-3.951599"><ele>1257.3</ele></trkpt>
<trkpt lat="40.829110" lon="-3.950500"><ele>1256.5</ele></trkpt>
<trkpt lat="40.830471" lon="-3.949384"><ele>1249.3</ele></trkpt>
<trkpt lat="40.831499" lon="-3.948543"><ele>1243.9</ele></trkpt>
<trkpt lat="40.831635" lon="-3.948133"><ele>1246.9</ele></trkpt>
<trkpt lat="40.830970" lon="-3.948212"><ele>1253.3</ele></trkpt>
<trkpt lat="40.830325" lon="-3.948515"><ele>1252.7</ele></trkpt>
<trkpt lat="40.830626" lon="-3.948586"><ele>1244.5</ele></trkpt>
<trkpt lat="40.832198" lon="-3.947995"><ele>1239.0</ele></trkpt>
<trkpt lat="40.834510" lon="-3.946545"><ele>1242.0</ele></trkpt>
<trkpt lat="40.836573" lon="-3.944370"><ele>1246.7</ele></trkpt>
<trkpt lat="40.837681" lon="-3.941878"><ele>1243.4</ele></trkpt>
<trkpt lat="40.837939" lon="-3.939559"><ele>1233.9</ele></trkpt>
<trkpt lat="40.838178" lon="-3.937764"><ele>1228.8</ele></trkpt>
<trkpt lat="40.839320" lon="-3.936541"><ele>1232.0</ele></trkpt>
<trkpt lat="40.841672" lon="-3.935620"><ele>1235.0</ele></trkpt>
<trkpt lat="40.844690" lon="-3.934541"><ele>1229.5</ele></trkpt>
<trkpt lat="40.847383" lon="-3.932878"><ele>1219.3</ele></trkpt>
<trkpt lat="40.849057" lon="-3.930443"><ele>1215.0</ele></trkpt>
<trkpt lat="40.849834" lon="-3.927377"><ele>1218.5</ele></trkpt>
<trkpt lat="40.850553" lon="-3.924091"><ele>1219.9</ele></trkpt>
<trkpt lat="40.852130" lon="-3.921076"><ele>1212.5</ele></trkpt>
<trkpt lat="40.854857" lon="-3.918676"><ele>1202.3</ele></trkpt>
<trkpt lat="40.858176" lon="-3.916932"><ele>1199.4</ele></trkpt>
<trkpt lat="40.861094" lon="-3.915567"><ele>1203.1</ele></trkpt>
<trkpt lat="40.862930" lon="-3.914119"><ele>1203.1</ele></trkpt>
<trkpt lat="40.863821" lon="-3.912165"><ele>1194.4</ele></trkpt>
<trkpt lat="40.864615" lon="-3.909525"><ele>1184.9</ele></trkpt>
<trkpt lat="40.866223" lon="-3.906348"><ele>1183.6</ele></trkpt>
<trkpt lat="40.868920" lon="-3.903050"><ele>1187.6</ele></trkpt>
<trkpt lat="40.872134" lon="-3.900120"><ele>1186.3</ele></trkpt>
<trkpt lat="40.874873" lon="-3.897897"><ele>1176.9</ele></trkpt>
<trkpt lat="40.876465" lon="-3.896413"><ele>1168.7</ele></trkpt>
<trkpt lat="40.877065" lon="-3.895384"><ele>1169.2</ele></trkpt>
<trkpt lat="40.877531" lon="-3.894347"><ele>1173.5</ele></trkpt>
<trkpt lat="40.878764" lon="-3.892884"><ele>1171.2</ele></trkpt>
<trkpt lat="40.881026" lon="-3.890820"><ele>1161.8</ele></trkpt>
<trkpt lat="40.883731" lon="-3.888313"><ele>1155.4</ele></trkpt>
<trkpt lat="40.885884" lon="-3.885784"><ele>1158.0</ele></trkpt>
<trkpt lat="40.886828" lon="-3.883720"><ele>1162.6</ele></trkpt>
<trkpt lat="40.886733" lon="-3.882453"><ele>1159.6</ele></trkpt>
<trkpt lat="40.886465" lon="-3.882010"><ele>1150.9</ele></trkpt>
<trkpt lat="40.886920" lon="-3.882098"><ele>1146.9</ele></trkpt>
<trkpt lat="40.888341" lon="-3.882253"><ele>1151.6</ele></trkpt>
<trkpt lat="40.890131" lon="-3.882061"><ele>1156.6</ele></trkpt>
<trkpt lat="40.891294" lon="-3.881354"><ele>1153.3</ele></trkpt>
<trkpt lat="40.891184" lon="-3.880299"><ele>1145.9</ele></trkpt>
<trkpt lat="40.889985" lon="-3.879238"><ele>1145.1</ele></trkpt>
<trkpt lat="40.888556" lon="-3.878391"><ele>1154.0</ele></trkpt>
<trkpt lat="40.887803" lon="-3.878063"><ele>1162.7</ele></trkpt>
<trkpt lat="40.887973" lon="-3.878266"><ele>1164.4</ele></trkpt>
<trkpt lat="40.888472" lon="-3.878702"><ele>1165.0</ele></trkpt>
<trkpt lat="40.888321" lon="-3.878900"><ele>1174.4</ele></trkpt>
<trkpt lat="40.886906" lon="-3.878448"><ele>1192.0</ele></trkpt>
<trkpt lat="40.884450" lon="-3.877184"><ele>1207.2</ele></trkpt>
<trkpt lat="40.881850" lon="-3.875277"><ele>1215.0</ele></trkpt>
<trkpt lat="40.880005" lon="-3.873155"><ele>1223.2</ele></trkpt>
<trkpt lat="40.879146" lon="-3.871299"><ele>1240.6</ele></trkpt>
<trkpt lat="40.878666" lon="-3.870027"><ele>1264.3</ele></trkpt>
<trkpt lat="40.877587" lon="-3.869345"><ele>1283.6</ele></trkpt>
<trkpt lat="40.875308" lon="-3.868947"><ele>1295.6</ele></trkpt>
<trkpt lat="40.872067" lon="-3.868362"><ele>1309.4</ele></trkpt>
<trkpt lat="40.868767" lon="-3.867181"><ele>1332.5</ele></trkpt>
<trkpt lat="40.866303" lon="-3.865250"><ele>1359.8</ele></trkpt>
<trkpt lat="40.864887" lon="-3.862746"><ele>1380.9</ele></trkpt>
<trkpt lat="40.863901" lon="-3.860100"><ele>1395.2</ele></trkpt>
<trkpt lat="40.862366" lon="-3.857792"><ele>1412.6</ele></trkpt>
<trkpt lat="40.859694" lon="-3.856135"><ele>1439.0</ele></trkpt>
<trkpt lat="40.856140" lon="-3.855125"><ele>1467.4</ele></trkpt>
<trkpt lat="40.852614" lon="-3.854451"><ele>1488.0</ele></trkpt>
<trkpt lat="40.850003" lon="-3.853640"><ele>1502.6</ele></trkpt>
<trkpt lat="40.848503" lon="-3.852288"><ele>1521.6</ele></trkpt>
<trkpt lat="40.847482" lon="-3.850248"><ele>1548.9</ele></trkpt>
<trkpt lat="40.845963" lon="-3.847705"><ele>1575.8</ele></trkpt>
<trkpt lat="40.843372" lon="-3.845093"><ele>1593.8</ele></trkpt>
<trkpt lat="40.839977" lon="-3.842892"><ele>1606.8</ele></trkpt>
<trkpt lat="40.836698" lon="-3.841407"><ele>1625.4</ele></trkpt>
<trkpt lat="40.834412" lon="-3.840627"><ele>1651.0</ele></trkpt>
<trkpt lat="40.833300" lon="-3.840234"><ele>1673.9</ele></trkpt>
<trkpt lat="40.832717" lon="-3.839755"><ele>1687.2</ele></trkpt>
<trkpt lat="40.831686" lon="-3.838789"><ele>1696.8</ele></trkpt>
<trkpt lat="40.829647" lon="-3.837197"><ele>1712.7</ele></trkpt>
<trkpt lat="40.826885" lon="-3.835173"><ele>1734.1</ele></trkpt>
<trkpt lat="40.824325" lon="-3.833154"><ele>1750.6</ele></trkpt>
<trkpt lat="40.822836" lon="-3.831617"><ele>1757.2</ele></trkpt>
<trkpt lat="40.822584" lon="-3.830862"><ele>1761.4</ele></trkpt>
<trkpt lat="40.822911" lon="-3.830870"><ele>1772.4</ele></trkpt>
<trkpt lat="40.822841" lon="-3.831315"><ele>1787.1</ele></trkpt>
<trkpt lat="40.821826" lon="-3.831726"><ele>1794.8</ele></trkpt>
<trkpt lat="40.820170" lon="-3.831704"><ele>1792.6</ele></trkpt>
<trkpt lat="40.818802" lon="-3.831119"><ele>1789.6</ele></trkpt>
<trkpt lat="40.818561" lon="-3.830158"><ele>1793.4</ele></trkpt>
<trkpt lat="40.819309" lon="-3.829084"><ele>1798.6</ele></trkpt>
<trkpt lat="40.820288" lon="-3.828318"><ele>1795.0</ele></trkpt>
<trkpt lat="40.820520" lon="-3.828147"><ele>1782.0</ele></trkpt>
<trkpt lat="40.819472" lon="-3.828543"><ele>1770.0</ele></trkpt>
<trkpt lat="40.817459" lon="-3.829172"><ele>1765.0</ele></trkpt>
<trkpt lat="40.815417" lon="-3.829558"><ele>1760.0</ele></trkpt>
<trkpt lat="40.814197" lon="-3.829304"><ele>1745.6</ele></trkpt>
<trkpt lat="40.813930" lon="-3.828286"><ele>1723.7</ele></trkpt>
<trkpt lat="40.813932" lon="-3.826709"><ele>1705.0</ele></trkpt>
<trkpt lat="40.813231" lon="-3.825013"><ele>1693.4</ele></trkpt>
<trkpt lat="40.811304" lon="-3.823672"><ele>1680.5</ele></trkpt>
<trkpt lat="40.808483" lon="-3.822968"><ele>1658.0</ele></trkpt>
<trkpt lat="40.805710" lon="-3.822861"><ele>1630.0</ele></trkpt>
<trkpt lat="40.803827" lon="-3.823015"><ele>1607.2</ele></trkpt>
<trkpt lat="40.802949" lon="-3.822951"><ele>1591.3</ele></trkpt>
<trkpt lat="40.802380" lon="-3.822278"><ele>1572.8</ele></trkpt>
<trkpt lat="40.801149" lon="-3.820878"><ele>1544.9</ele></trkpt>
<trkpt lat="40.798748" lon="-3.818965"><ele>1513.8</ele></trkpt>
<trkpt lat="40.795526" lon="-3.816983"><ele>1489.6</ele></trkpt>
<trkpt lat="40.792427" lon="-3.815402"><ele>1471.7</ele></trkpt>
<trkpt lat="40.790287" lon="-3.814497"><ele>1449.9</ele></trkpt>
<trkpt lat="40.789202" lon="-3.814224"><ele>1419.4</ele></trkpt>
<trkpt lat="40.788466" lon="-3.814236"><ele>1388.0</ele></trkpt>
<trkpt lat="40.787110" lon="-3.814056"><ele>1364.9</ele></trkpt>
<trkpt lat="40.784641" lon="-3.813298"><ele>1347.3</ele></trkpt>
<trkpt lat="40.781421" lon="-3.811852"><ele>1324.6</ele></trkpt>
<trkpt lat="40.778402" lon="-3.809938"><ele>1294.3</ele></trkpt>
<trkpt lat="40.776409" lon="-3.808004"><ele>1265.4</ele></trkpt>
<trkpt lat="40.775522" lon="-3.806518"><ele>1245.9</ele></trkpt>
<trkpt lat="40.775025" lon="-3.805749"><ele>1230.8</ele></trkpt>
<trkpt lat="40.773949" lon="-3.805642"><ele>1209.8</ele></trkpt>
<trkpt lat="40.771815" lon="-3.805847"><ele>1182.4</ele></trkpt>
<trkpt lat="40.769004" lon="-3.805886"><ele>1159.0</ele></trkpt>
<trkpt lat="40.766470" lon="-3.805378"><ele>1145.5</ele></trkpt>
<trkpt lat="40.765029" lon="-3.804220"><ele>1135.1</ele></trkpt>
<trkpt lat="40.764745" lon="-3.802640"><ele>1118.2</ele></trkpt>
<trkpt lat="40.764889" lon="-3.801090"><ele>1096.8</ele></trkpt>
<trkpt lat="40.764498" lon="-3.800033"><ele>1081.5</ele></trkpt>
<trkpt lat="40.763106" lon="-3.799734"><ele>1076.4</ele></trkpt>
<trkpt lat="40.761108" lon="-3.800128"><ele>1072.9</ele></trkpt>
<trkpt lat="40.759464" lon="-3.800861"><ele>1062.8</ele></trkpt>
<trkpt lat="40.758979" lon="-3.801453"><ele>1050.3</ele></trkpt>
<trkpt lat="40.759703" lon="-3.801529"><ele>1045.8</ele></trkpt>
<trkpt lat="40.760895" lon="-3.800994"><ele>1051.3</ele></trkpt>
<trkpt lat="40.761352" lon="-3.799986"><ele>1055.7</ele></trkpt>
<trkpt lat="40.760389" lon="-3.798861"><ele>1050.9</ele></trkpt>
<trkpt lat="40.758420" lon="-3.798083"><ele>1042.8</ele></trkpt>
<trkpt lat="40.756416" lon="-3.797906"><ele>1041.6</ele></trkpt>
<trkpt lat="40.755176" lon="-3.798263"><ele>1046.6</ele></trkpt>
<trkpt lat="40.754738" lon="-3.798792"><ele>1047.4</ele></trkpt>
<trkpt lat="40.754357" lon="-3.799013"><ele>1039.2</ele></trkpt>
<trkpt lat="40.753078" lon="-3.798558"><ele>1029.8</ele></trkpt>
<trkpt lat="40.750473" lon="-3.797341"><ele>1028.2</ele></trkpt>
<trkpt lat="40.746972" lon="-3.795603"><ele>1031.6</ele></trkpt>
<trkpt lat="40.743548" lon="-3.793802"><ele>1029.4</ele></trkpt>
<trkpt lat="40.740992" lon="-3.792399"><ele>1018.7</ele></trkpt>
<trkpt lat="40.739324" lon="-3.791643"><ele>1008.8</ele></trkpt>
<trkpt lat="40.737788" lon="-3.791456"><ele>1007.4</ele></trkpt>
<trkpt lat="40.735435" lon="-3.791472"><ele>1009.4</ele></trkpt>
<trkpt lat="40.731850" lon="-3.791212"><ele>1004.5</ele></trkpt>
<trkpt lat="40.727478" lon="-3.790312"><ele>992.2</ele></trkpt>
<trkpt lat="40.723296" lon="-3.788693"><ele>982.7</ele></trkpt>
<trkpt lat="40.720085" lon="-3.786605"><ele>981.9</ele></trkpt>
<trkpt lat="40.717848" lon="-3.784508"><ele>982.7</ele></trkpt>
<trkpt lat="40.715819" lon="-3.782860"><ele>975.8</ele></trkpt>
<trkpt lat="40.713052" lon="-3.781904"><ele>962.8</ele></trkpt>
<trkpt lat="40.709149" lon="-3.781552"><ele>954.4</ele></trkpt>
<trkpt lat="40.704567" lon="-3.781434"><ele>954.5</ele></trkpt>
<trkpt lat="40.700289" lon="-3.781072"><ele>954.6</ele></trkpt>
<trkpt lat="40.697084" lon="-3.780105"><ele>946.2</ele></trkpt>
<trkpt lat="40.694939" lon="-3.778465"><ele>933.5</ele></trkpt>
<trkpt lat="40.693078" lon="-3.776406"><ele>926.9</ele></trkpt>
<trkpt lat="40.690559" lon="-3.774393"><ele>928.3</ele></trkpt>
<trkpt lat="40.686998" lon="-3.772880"><ele>927.8</ele></trkpt>
<trkpt lat="40.682869" lon="-3.772101"><ele>918.7</ele></trkpt>
<trkpt lat="40.679156" lon="-3.771964"><ele>907.2</ele></trkpt>
<trkpt lat="40.676618" lon="-3.772092"><ele>903.1</ele></trkpt>
<trkpt lat="40.675226" lon="-3.772006"><ele>906.0</ele></trkpt>
<trkpt lat="40.674194" lon="-3.771352"><ele>905.3</ele></trkpt>
<trkpt lat="40.672584" lon="-3.770069"><ele>896.4</ele></trkpt>
<trkpt lat="40.670027" lon="-3.768419"><ele>886.8</ele></trkpt>
<trkpt lat="40.667012" lon="-3.766869"><ele>885.8</ele></trkpt>
<trkpt lat="40.664526" lon="-3.765870"><ele>890.5</ele></trkpt>
<trkpt lat="40.663317" lon="-3.765650"><ele>890.1</ele></trkpt>
<trkpt lat="40.663340" lon="-3.766106"><ele>882.0</ele></trkpt>
<trkpt lat="40.663797" lon="-3.766858"><ele>875.4</ele></trkpt>
<trkpt lat="40.663757" lon="-3.767428"><ele>878.0</ele></trkpt>
<trkpt lat="40.662866" lon="-3.767466"><ele>884.6</ele></trkpt>
<trkpt lat="40.661484" lon="-3.766872"><ele>884.8</ele></trkpt>
<trkpt lat="40.660140" lon="-3.765762"><ele>877.3</ele></trkpt>
<trkpt lat="40.659537" lon="-3.764592"><ele>872.1</ele></trkpt>
<trkpt lat="40.659614" lon="-3.763811"><ele>875.3</ele></trkpt>
<trkpt lat="40.659568" lon="-3.763640"><ele>879.8</ele></trkpt>
<trkpt lat="40.658473" lon="-3.763968"><ele>876.0</ele></trkpt>
<trkpt lat="40.655992" lon="-3.764411"><ele>865.9</ele></trkpt>
<trkpt lat="40.652645" lon="-3.764491"><ele>859.9</ele></trkpt>
<trkpt lat="40.649427" lon="-3.763865"><ele>862.1</ele></trkpt>
<trkpt lat="40.647064" lon="-3.762488"><ele>863.9</ele></trkpt>
<trkpt lat="40.645480" lon="-3.760637"><ele>856.8</ele></trkpt>
<trkpt lat="40.643861" lon="-3.758782"><ele>845.0</ele></trkpt>
<trkpt lat="40.641288" lon="-3.757370"><ele>839.0</ele></trkpt>
<trkpt lat="40.637439" lon="-3.756612"><ele>840.6</ele></trkpt>
<trkpt lat="40.632848" lon="-3.756393"><ele>839.9</ele></trkpt>
<trkpt lat="40.628511" lon="-3.756322"><ele>830.3</ele></trkpt>
<trkpt lat="40.625144" lon="-3.755921"><ele>817.8</ele></trkpt>
<trkpt lat="40.622654" lon="-3.754854"><ele>812.5</ele></trkpt>
<trkpt lat="40.620219" lon="-3.753083"><ele>813.7</ele></trkpt>
<trkpt lat="40.616923" lon="-3.750893"><ele>811.1</ele></trkpt>
<trkpt lat="40.612461" lon="-3.748756"><ele>799.7</ele></trkpt>
<trkpt lat="40.607382" lon="-3.747113"><ele>787.4</ele></trkpt>
<trkpt lat="40.602683" lon="-3.746172"><ele>783.4</ele></trkpt>
<trkpt lat="40.599068" lon="-3.745807"><ele>784.6</ele></trkpt>
<trkpt lat="40.596427" lon="-3.745622"><ele>780.4</ele></trkpt>
<trkpt lat="40.593930" lon="-3.745142"><ele>768.2</ele></trkpt>
<trkpt lat="40.590668" lon="-3.744035"><ele>757.0</ele></trkpt>
<trkpt lat="40.586350" lon="-3.742273"><ele>754.7</ele></trkpt>
<trkpt lat="40.581538" lon="-3.740145"><ele>756.2</ele></trkpt>
<trkpt lat="40.577233" lon="-3.738127"><ele>751.0</ele></trkpt>
<trkpt lat="40.574126" lon="-3.736657"><ele>738.8</ele></trkpt>
<trkpt lat="40.572090" lon="-3.735933"><ele>729.7</ele></trkpt>
<trkpt lat="40.570287" lon="-3.735822"><ele>729.6</ele></trkpt>
<trkpt lat="40.567813" lon="-3.735926"><ele>731.6</ele></trkpt>
<trkpt lat="40.564395" lon="-3.735768"><ele>726.0</ele></trkpt>
<trkpt lat="40.560607" lon="-3.735024"><ele>714.8</ele></trkpt>
<trkpt lat="40.557452" lon="-3.733671"><ele>708.5</ele></trkpt>
<trkpt lat="40.555608" lon="-3.732008"><ele>711.1</ele></trkpt>
<trkpt lat="40.554933" lon="-3.730511"><ele>713.9</ele></trkpt>
<trkpt lat="40.554579" lon="-3.729614"><ele>708.6</ele></trkpt>
<trkpt lat="40.553650" lon="-3.729509"><ele>699.3</ele></trkpt>
<trkpt lat="40.551887" lon="-3.730055"><ele>696.6</ele></trkpt>
<trkpt lat="40.549880" lon="-3.730848"><ele>702.1</ele></trkpt>
<trkpt lat="40.548630" lon="-3.731414"><ele>706.1</ele></trkpt>
<trkpt lat="40.548763" lon="-3.731424"><ele>701.8</ele></trkpt>
<trkpt lat="40.549560" lon="-3.730746"><ele>694.8</ele></trkpt>
<trkpt lat="40.550000" lon="-3.729645"><ele>695.0</ele></trkpt>
<trkpt lat="40.549194" lon="-3.728598"><ele>701.6</ele></trkpt>
<trkpt lat="40.546907" lon="-3.728032"><ele>704.3</ele></trkpt>
<trkpt lat="40.543743" lon="-3.728128"><ele>698.2</ele></trkpt>
<trkpt lat="40.540710" lon="-3.728735"><ele>691.1</ele></trkpt>
<trkpt lat="40.538467" lon="-3.729443"><ele>692.0</ele></trkpt>
<trkpt lat="40.536842" lon="-3.729777"><ele>698.1</ele></trkpt>
<trkpt lat="40.534977" lon="-3.729418"><ele>698.7</ele></trkpt>
<trkpt lat="40.531991" lon="-3.728362"><ele>691.0</ele></trkpt>
<trkpt lat="40.527662" lon="-3.726915"><ele>684.3</ele></trkpt>
<trkpt lat="40.522611" lon="-3.725553"><ele>686.2</ele></trkpt>
<trkpt lat="40.517844" lon="-3.724703"><ele>691.6</ele></trkpt>
<trkpt lat="40.514009" lon="-3.724538"><ele>690.2</ele></trkpt>
<trkpt lat="40.510916" lon="-3.724897"><ele>681.5</ele></trkpt>
<trkpt lat="40.507700" lon="-3.725368"><ele>675.6</ele></trkpt>
<trkpt lat="40.503487" lon="-3.725474"><ele>678.4</ele></trkpt>
<trkpt lat="40.498073" lon="-3.724907"><ele>683.0</ele></trkpt>
<trkpt lat="40.492089" lon="-3.723668"><ele>679.8</ele></trkpt>
<trkpt lat="40.486544" lon="-3.722069"><ele>670.6</ele></trkpt>
<trkpt lat="40.482070" lon="-3.720590"><ele>665.9</ele></trkpt>
<trkpt lat="40.478464" lon="-3.719651"><ele>669.7</ele></trkpt>
<trkpt lat="40.474852" lon="-3.719419"><ele>673.4</ele></trkpt>
<trkpt lat="40.470368" lon="-3.719725"><ele>668.6</ele></trkpt>
<trkpt lat="40.464823" lon="-3.720153"><ele>659.4</ele></trkpt>
<trkpt lat="40.458862" lon="-3.720228"><ele>656.4</ele></trkpt>
<trkpt lat="40.453493" lon="-3.719648"><ele>661.1</ele></trkpt>
<trkpt lat="40.449337" lon="-3.718420"><ele>663.8</ele></trkpt>
<trkpt lat="40.446172" lon="-3.716866"><ele>657.8</ele></trkpt>
<trkpt lat="40.443118" lon="-3.715464"><ele>649.2</ele></trkpt>
<trkpt lat="40.439317" lon="-3.714632"><ele>647.9</ele></trkpt>
<trkpt lat="40.434596" lon="-3.714528"><ele>653.4</ele></trkpt>
<trkpt lat="40.429614" lon="-3.714977"><ele>655.2</ele></trkpt>
<trkpt lat="40.425377" lon="-3.715556"><ele>648.4</ele></trkpt>
<trkpt lat="40.422492" lon="-3.715795"><ele>640.8</ele></trkpt>
<trkpt lat="40.420722" lon="-3.715396"><ele>641.6</ele></trkpt>
<trkpt lat="40.419182" lon="-3.714376"><ele>647.7</ele></trkpt>
<trkpt lat="40.417019" lon="-3.713061"><ele>648.5</ele></trkpt>
<trkpt lat="40.414078" lon="-3.711933"><ele>641.4</ele></trkpt>
<trkpt lat="40.411029" lon="-3.711403"><ele>635.4</ele></trkpt>
<trkpt lat="40.408878" lon="-3.711622"><ele>638.3</ele></trkpt>
<trkpt lat="40.408219" lon="-3.712408"><ele>645.0</ele></trkpt>
<trkpt lat="40.408800" lon="-3.713335"><ele>645.0</ele></trkpt>
<trkpt lat="40.409727" lon="-3.713932"><ele>638.0</ele></trkpt>
</trkseg></trk>
</gpx>
