<?xml version="1.0" encoding="UTF-8"?>
<gpx version="1.1" creator="CD Bomberos Madrid" xmlns="http://www.topografix.com/GPX/1/1">
<trk><name>Etapa 1 · Madrid – Cercedilla por el Alto del León</name><trkseg>
<trkpt lat="40.408500" lon="-3.711000"><ele>640.0</ele></trkpt>
<trkpt lat="40.409767" lon="-3.711484"><ele>645.9</ele></trkpt>
<trkpt lat="40.410325" lon="-3.712763"><ele>643.4</ele></trkpt>
<trkpt lat="40.409948" lon="-3.714405"><ele>636.7</ele></trkpt>
<trkpt lat="40.409248" lon="-3.715922"><ele>636.1</ele></trkpt>
<trkpt lat="40.409204" lon="-3.716993"><ele>643.4</ele></trkpt>
<trkpt lat="40.410415" lon="-3.717610"><ele>649.0</ele></trkpt>
<trkpt lat="40.412641" lon="-3.718076"><ele>645.9</ele></trkpt>
<trkpt lat="40.414976" lon="-3.718856"><ele>640.2</ele></trkpt>
<trkpt lat="40.416529" lon="-3.720354"><ele>641.8</ele></trkpt>
<trkpt lat="40.417094" lon="-3.722717"><ele>650.3</ele></trkpt>
<trkpt lat="40.417293" lon="-3.725757"><ele>655.2</ele></trkpt>
<trkpt lat="40.418107" lon="-3.729041"><ele>651.5</ele></trkpt>
<trkpt lat="40.420120" lon="-3.732080"><ele>646.9</ele></trkpt>
<trkpt lat="40.423076" lon="-3.734562"><ele>650.5</ele></trkpt>
<trkpt lat="40.426063" lon="-3.736485"><ele>659.6</ele></trkpt>
<trkpt lat="40.428198" lon="-3.738160"><ele>663.4</ele></trkpt>
<trkpt lat="40.429289" lon="-3.740052"><ele>659.0</ele></trkpt>
<trkpt lat="40.429973" lon="-3.742561"><ele>655.7</ele></trkpt>
<trkpt lat="40.431229" lon="-3.745825"><ele>661.1</ele></trkpt>
<trkpt lat="40.433629" lon="-3.749651"><ele>670.2</ele></trkpt>
<trkpt lat="40.436900" lon="-3.753600"><ele>672.6</ele></trkpt>
<trkpt lat="40.440124" lon="-3.757186"><ele>667.7</ele></trkpt>
<trkpt lat="40.442425" lon="-3.760102"><ele>665.7</ele></trkpt>
<trkpt lat="40.443628" lon="-3.762356"><ele>672.4</ele></trkpt>
<trkpt lat="40.444383" lon="-3.764263"><ele>681.0</ele></trkpt>
<trkpt lat="40.445667" lon="-3.766291"><ele>681.8</ele></trkpt>
<trkpt lat="40.448038" lon="-3.768834"><ele>676.6</ele></trkpt>
<trkpt lat="40.451209" lon="-3.772024"><ele>675.8</ele></trkpt>
<trkpt lat="40.454254" lon="-3.775659"><ele>683.4</ele></trkpt>
<trkpt lat="40.456306" lon="-3.779297"><ele>691.0</ele></trkpt>
<trkpt lat="40.457206" lon="-3.782454"><ele>690.1</ele></trkpt>
<trkpt lat="40.457617" lon="-3.784829"><ele>684.5</ele></trkpt>
<trkpt lat="40.458513" lon="-3.786437"><ele>684.9</ele></trkpt>
<trkpt lat="40.460442" lon="-3.787601"><ele>693.0</ele></trkpt>
<trkpt lat="40.463096" lon="-3.788789"><ele>699.1</ele></trkpt>
<trkpt lat="40.465547" lon="-3.790391"><ele>696.3</ele></trkpt>
<trkpt lat="40.466935" lon="-3.792530"><ele>690.6</ele></trkpt>
<trkpt lat="40.467118" lon="-3.794998"><ele>692.1</ele></trkpt>
<trkpt lat="40.466770" lon="-3.797348"><ele>700.1</ele></trkpt>
<trkpt lat="40.466864" lon="-3.799099"><ele>704.3</ele></trkpt>
<trkpt lat="40.467934" lon="-3.799957"><ele>699.7</ele></trkpt>
<trkpt lat="40.469658" lon="-3.799944"><ele>693.9</ele></trkpt>
<trkpt lat="40.471099" lon="-3.799389"><ele>696.2</ele></trkpt>
<trkpt lat="40.471409" lon="-3.798761"><ele>703.6</ele></trkpt>
<trkpt lat="40.470517" lon="-3.798554"><ele>705.6</ele></trkpt>
<trkpt lat="40.469299" lon="-3.799240"><ele>699.4</ele></trkpt>
<trkpt lat="40.468749" lon="-3.800631"><ele>694.3</ele></trkpt>
<trkpt lat="40.469389" lon="-3.802279"><ele>697.9</ele></trkpt>
<trkpt lat="40.470887" lon="-3.803707"><ele>705.2</ele></trkpt>
<trkpt lat="40.472308" lon="-3.804629"><ele>705.9</ele></trkpt>
<trkpt lat="40.472815" lon="-3.805079"><ele>699.3</ele></trkpt>
<trkpt lat="40.472303" lon="-3.805392"><ele>695.6</ele></trkpt>
<trkpt lat="40.471476" lon="-3.806040"><ele>700.7</ele></trkpt>
<trkpt lat="40.471310" lon="-3.807406"><ele>707.7</ele></trkpt>
<trkpt lat="40.472314" lon="-3.809600"><ele>707.0</ele></trkpt>
<trkpt lat="40.474141" lon="-3.812401"><ele>700.3</ele></trkpt>
<trkpt lat="40.475849" lon="-3.815356"><ele>698.2</ele></trkpt>
<trkpt lat="40.476611" lon="-3.817991"><ele>704.5</ele></trkpt>
<trkpt lat="40.476340" lon="-3.820027"><ele>710.9</ele></trkpt>
<trkpt lat="40.475749" lon="-3.821506"><ele>708.8</ele></trkpt>
<trkpt lat="40.475812" lon="-3.822767"><ele>702.2</ele></trkpt>
<trkpt lat="40.477025" lon="-3.824285"><ele>701.7</ele></trkpt>
<trkpt lat="40.479025" lon="-3.826437"><ele>709.0</ele></trkpt>
<trkpt lat="40.480865" lon="-3.829326"><ele>714.3</ele></trkpt>
<trkpt lat="40.481727" lon="-3.832721"><ele>710.9</ele></trkpt>
<trkpt lat="40.481540" lon="-3.836169"><ele>704.7</ele></trkpt>
<trkpt lat="40.481030" lon="-3.839197"><ele>705.8</ele></trkpt>
<trkpt lat="40.481168" lon="-3.841532"><ele>713.5</ele></trkpt>
<trkpt lat="40.482435" lon="-3.843225"><ele>717.6</ele></trkpt>
<trkpt lat="40.484452" lon="-3.844622"><ele>713.0</ele></trkpt>
<trkpt lat="40.486268" lon="-3.846195"><ele>707.4</ele></trkpt>
<trkpt lat="40.487075" lon="-3.848319"><ele>710.0</ele></trkpt>
<trkpt lat="40.486818" lon="-3.851087"><ele>717.9</ele></trkpt>
<trkpt lat="40.486234" lon="-3.854263"><ele>720.5</ele></trkpt>
<trkpt lat="40.486292" lon="-3.857389"><ele>714.8</ele></trkpt>
<trkpt lat="40.487457" lon="-3.859996"><ele>710.1</ele></trkpt>
<trkpt lat="40.489336" lon="-3.861816"><ele>714.1</ele></trkpt>
<trkpt lat="40.490973" lon="-3.862909"><ele>721.7</ele></trkpt>
<trkpt lat="40.491570" lon="-3.863627"><ele>722.5</ele></trkpt>
<trkpt lat="40.491087" lon="-3.864442"><ele>716.1</ele></trkpt>
<trkpt lat="40.490275" lon="-3.865723"><ele>712.4</ele></trkpt>
<trkpt lat="40.490097" lon="-3.867556"><ele>717.5</ele></trkpt>
<trkpt lat="40.491004" lon="-3.869698"><ele>724.4</ele></trkpt>
<trkpt lat="40.492590" lon="-3.871688"><ele>723.5</ele></trkpt>
<trkpt lat="40.493892" lon="-3.873057"><ele>716.5</ele></trkpt>
<trkpt lat="40.494123" lon="-3.873549"><ele>714.0</ele></trkpt>
<trkpt lat="40.493261" lon="-3.873228"><ele>719.9</ele></trkpt>
<trkpt lat="40.492065" lon="-3.872452"><ele>725.8</ele></trkpt>
<trkpt lat="40.491509" lon="-3.871724"><ele>723.1</ele></trkpt>
<trkpt lat="40.492199" lon="-3.871779"><ele>716.2</ele></trkpt>
<trkpt lat="40.493758" lon="-3.872808"><ele>715.8</ele></trkpt>
<trkpt lat="40.495219" lon="-3.874559"><ele>723.6</ele></trkpt>
<trkpt lat="40.495799" lon="-3.876562"><ele>729.7</ele></trkpt>
<trkpt lat="40.495488" lon="-3.878351"><ele>727.5</ele></trkpt>
<trkpt lat="40.495052" lon="-3.879670"><ele>722.8</ele></trkpt>
<trkpt lat="40.495444" lon="-3.880590"><ele>725.7</ele></trkpt>
<trkpt lat="40.497082" lon="-3.881471"><ele>735.5</ele></trkpt>
<trkpt lat="40.499522" lon="-3.882782"><ele>741.9</ele></trkpt>
<trkpt lat="40.501794" lon="-3.884878"><ele>739.9</ele></trkpt>
<trkpt lat="40.503124" lon="-3.887826"><ele>737.2</ele></trkpt>
<trkpt lat="40.503519" lon="-3.891366"><ele>742.9</ele></trkpt>
<trkpt lat="40.503756" lon="-3.895026"><ele>754.0</ele></trkpt>
<trkpt lat="40.504784" lon="-3.898343"><ele>760.0</ele></trkpt>
<trkpt lat="40.507005" lon="-3.901068"><ele>758.0</ele></trkpt>
<trkpt lat="40.509962" lon="-3.903280"><ele>757.1</ele></trkpt>
<trkpt lat="40.512680" lon="-3.905343"><ele>765.0</ele></trkpt>
<trkpt lat="40.514396" lon="-3.907727"><ele>776.6</ele></trkpt>
<trkpt lat="40.515134" lon="-3.910782"><ele>781.6</ele></trkpt>
<trkpt lat="40.515680" lon="-3.914566"><ele>779.4</ele></trkpt>
<trkpt lat="40.516979" lon="-3.918813"><ele>780.1</ele></trkpt>
<trkpt lat="40.519420" lon="-3.923048"><ele>789.5</ele></trkpt>
<trkpt lat="40.522528" lon="-3.926811"><ele>800.8</ele></trkpt>
<trkpt lat="40.525327" lon="-3.929859"><ele>804.3</ele></trkpt>
<trkpt lat="40.527064" lon="-3.932281"><ele>801.8</ele></trkpt>
<trkpt lat="40.527781" lon="-3.934444"><ele>803.7</ele></trkpt>
<trkpt lat="40.528271" lon="-3.936820"><ele>814.1</ele></trkpt>
<trkpt lat="40.529479" lon="-3.939752"><ele>824.2</ele></trkpt>
<trkpt lat="40.531773" lon="-3.943291"><ele>825.8</ele></trkpt>
<trkpt lat="40.534669" lon="-3.947162"><ele>822.8</ele></trkpt>
<trkpt lat="40.537184" lon="-3.950890"><ele>825.7</ele></trkpt>
<trkpt lat="40.538578" lon="-3.954016"><ele>836.1</ele></trkpt>
<trkpt lat="40.538909" lon="-3.956306"><ele>844.4</ele></trkpt>
<trkpt lat="40.538981" lon="-3.957855"><ele>843.7</ele></trkpt>
<trkpt lat="40.539731" lon="-3.959038"><ele>840.1</ele></trkpt>
<trkpt lat="40.541516" lon="-3.960323"><ele>843.4</ele></trkpt>
<trkpt lat="40.543833" lon="-3.962050"><ele>853.2</ele></trkpt>
<trkpt lat="40.545700" lon="-3.964261"><ele>858.9</ele></trkpt>
<trkpt lat="40.546387" lon="-3.966674"><ele>855.7</ele></trkpt>
<trkpt lat="40.545968" lon="-3.968812"><ele>851.2</ele></trkpt>
<trkpt lat="40.545257" lon="-3.970219"><ele>854.6</ele></trkpt>
<trkpt lat="40.545186" lon="-3.970669"><ele>862.8</ele></trkpt>
<trkpt lat="40.546096" lon="-3.970264"><ele>865.4</ele></trkpt>
<trkpt lat="40.547471" lon="-3.969384"><ele>859.3</ele></trkpt>
<trkpt lat="40.548518" lon="-3.968783"><ele>854.1</ele></trkpt>
<trkpt lat="40.548712" lon="-3.969080"><ele>857.7</ele></trkpt>
<trkpt lat="40.548140" lon="-3.970311"><ele>865.1</ele></trkpt>
<trkpt lat="40.547623" lon="-3.972188"><ele>865.9</ele></trkpt>
<trkpt lat="40.548085" lon="-3.974233"><ele>859.5</ele></trkpt>
<trkpt lat="40.549848" lon="-3.975993"><ele>856.0</ele></trkpt>
<trkpt lat="40.552380" lon="-3.977252"><ele>861.4</ele></trkpt>
<trkpt lat="40.554690" lon="-3.978120"><ele>868.8</ele></trkpt>
<trkpt lat="40.556070" lon="-3.978983"><ele>868.4</ele></trkpt>
<trkpt lat="40.556625" lon="-3.980309"><ele>862.1</ele></trkpt>
<trkpt lat="40.557182" lon="-3.982427"><ele>860.4</ele></trkpt>
<trkpt lat="40.558661" lon="-3.985363"><ele>867.2</ele></trkpt>
<trkpt lat="40.561370" lon="-3.988825"><ele>874.1</ele></trkpt>
<trkpt lat="40.564760" lon="-3.992331"><ele>872.5</ele></trkpt>
<trkpt lat="40.567841" lon="-3.995433"><ele>866.5</ele></trkpt>
<trkpt lat="40.569915" lon="-3.997921"><ele>866.6</ele></trkpt>
<trkpt lat="40.571102" lon="-3.999913"><ele>874.5</ele></trkpt>
<trkpt lat="40.572242" lon="-4.001800"><ele>880.4</ele></trkpt>
<trkpt lat="40.574247" lon="-4.004050"><ele>877.6</ele></trkpt>
<trkpt lat="40.577407" lon="-4.006984"><ele>872.1</ele></trkpt>
<trkpt lat="40.581163" lon="-4.010622"><ele>873.9</ele></trkpt>
<trkpt lat="40.584521" lon="-4.014665"><ele>882.3</ele></trkpt>
<trkpt lat="40.586796" lon="-4.018628"><ele>887.0</ele></trkpt>
<trkpt lat="40.588125" lon="-4.022068"><ele>883.1</ele></trkpt>
<trkpt lat="40.589355" lon="-4.024780"><ele>878.2</ele></trkpt>
<trkpt lat="40.591392" lon="-4.026893"><ele>881.5</ele></trkpt>
<trkpt lat="40.594512" lon="-4.028801"><ele>890.1</ele></trkpt>
<trkpt lat="40.598141" lon="-4.030970"><ele>893.3</ele></trkpt>
<trkpt lat="40.601283" lon="-4.033717"><ele>888.3</ele></trkpt>
<trkpt lat="40.603267" lon="-4.037053"><ele>884.2</ele></trkpt>
<trkpt lat="40.604245" lon="-4.040672"><ele>888.8</ele></trkpt>
<trkpt lat="40.605072" lon="-4.044088"><ele>897.0</ele></trkpt>
<trkpt lat="40.606650" lon="-4.046861"><ele>898.4</ele></trkpt>
<trkpt lat="40.609237" lon="-4.048795"><ele>892.5</ele></trkpt>
<trkpt lat="40.612245" lon="-4.050025"><ele>889.4</ele></trkpt>
<trkpt lat="40.614679" lon="-4.050949"><ele>895.0</ele></trkpt>
<trkpt lat="40.615878" lon="-4.052034"><ele>902.4</ele></trkpt>
<trkpt lat="40.616013" lon="-4.053590"><ele>901.9</ele></trkpt>
<trkpt lat="40.615946" lon="-4.055620"><ele>895.3</ele></trkpt>
<trkpt lat="40.616571" lon="-4.057811"><ele>893.2</ele></trkpt>
<trkpt lat="40.618132" lon="-4.059676"><ele>899.4</ele></trkpt>
<trkpt lat="40.620027" lon="-4.060778"><ele>905.5</ele></trkpt>
<trkpt lat="40.621259" lon="-4.060929"><ele>903.0</ele></trkpt>
<trkpt lat="40.621182" lon="-4.060272"><ele>895.8</ele></trkpt>
<trkpt lat="40.620067" lon="-4.059297"><ele>894.8</ele></trkpt>
<trkpt lat="40.619060" lon="-4.058755"><ele>901.7</ele></trkpt>
<trkpt lat="40.619074" lon="-4.058980"><ele>907.0</ele></trkpt>
<trkpt lat="40.620339" lon="-4.059973"><ele>903.8</ele></trkpt>
<trkpt lat="40.622242" lon="-4.061422"><ele>898.1</ele></trkpt>
<trkpt lat="40.623791" lon="-4.062846"><ele>899.9</ele></trkpt>
<trkpt lat="40.624353" lon="-4.063819"><ele>908.7</ele></trkpt>
<trkpt lat="40.624134" lon="-4.064169"><ele>913.9</ele></trkpt>
<trkpt lat="40.624014" lon="-4.064052"><ele>910.6</ele></trkpt>
<trkpt lat="40.624876" lon="-4.063882"><ele>906.6</ele></trkpt>
<trkpt lat="40.626935" lon="-4.064130"><ele>911.0</ele></trkpt>
<trkpt lat="40.629566" lon="-4.065102"><ele>920.8</ele></trkpt>
<trkpt lat="40.631774" lon="-4.066791"><ele>925.4</ele></trkpt>
<trkpt lat="40.632941" lon="-4.068879"><ele>922.0</ele></trkpt>
<trkpt lat="40.633289" lon="-4.070883"><ele>919.7</ele></trkpt>
<trkpt lat="40.633705" lon="-4.072382"><ele>926.2</ele></trkpt>
<trkpt lat="40.635065" lon="-4.073210"><ele>936.4</ele></trkpt>
<trkpt lat="40.637567" lon="-4.073532"><ele>939.9</ele></trkpt>
<trkpt lat="40.640574" lon="-4.073765"><ele>936.3</ele></trkpt>
<trkpt lat="40.643090" lon="-4.074380"><ele>935.6</ele></trkpt>
<trkpt lat="40.644512" lon="-4.075676"><ele>943.7</ele></trkpt>
<trkpt lat="40.645077" lon="-4.077637"><ele>953.6</ele></trkpt>
<trkpt lat="40.645678" lon="-4.079939"><ele>955.8</ele></trkpt>
<trkpt lat="40.647185" lon="-4.082100"><ele>951.9</ele></trkpt>
<trkpt lat="40.649779" lon="-4.083700"><ele>952.7</ele></trkpt>
<trkpt lat="40.652810" lon="-4.084582"><ele>961.8</ele></trkpt>
<trkpt lat="40.655283" lon="-4.084919"><ele>970.8</ele></trkpt>
<trkpt lat="40.656609" lon="-4.085133"><ele>971.3</ele></trkpt>
<trkpt lat="40.657039" lon="-4.085691"><ele>967.2</ele></trkpt>
<trkpt lat="40.657475" lon="-4.086886"><ele>969.1</ele></trkpt>
<trkpt lat="40.658778" lon="-4.088695"><ele>978.7</ele></trkpt>
<trkpt lat="40.661113" lon="-4.090788"><ele>986.2</ele></trkpt>
<trkpt lat="40.663817" lon="-4.092680"><ele>984.7</ele></trkpt>
<trkpt lat="40.665897" lon="-4.093958"><ele>980.4</ele></trkpt>
<trkpt lat="40.666775" lon="-4.094470"><ele>983.3</ele></trkpt>
<trkpt lat="40.666721" lon="-4.094399"><ele>992.6</ele></trkpt>
<trkpt lat="40.666641" lon="-4.094169"><ele>998.0</ele></trkpt>
<trkpt lat="40.667390" lon="-4.094246"><ele>994.5</ele></trkpt>
<trkpt lat="40.669114" lon="-4.094917"><ele>989.9</ele></trkpt>
<trkpt lat="40.671140" lon="-4.096150"><ele>993.3</ele></trkpt>
<trkpt lat="40.672475" lon="-4.097609"><ele>1001.7</ele></trkpt>
<trkpt lat="40.672555" lon="-4.098809"><ele>1004.5</ele></trkpt>
<trkpt lat="40.671666" lon="-4.099340"><ele>998.9</ele></trkpt>
<trkpt lat="40.670720" lon="-4.099060"><ele>994.0</ele></trkpt>
<trkpt lat="40.670577" lon="-4.098170"><ele>997.6</ele></trkpt>
<trkpt lat="40.671567" lon="-4.097270"><ele>1006.0</ele></trkpt>
<trkpt lat="40.673065" lon="-4.096879"><ele>1009.0</ele></trkpt>
<trkpt lat="40.674083" lon="-4.097275"><ele>1006.3</ele></trkpt>
<trkpt lat="40.674071" lon="-4.098419"><ele>1007.7</ele></trkpt>
<trkpt lat="40.673333" lon="-4.099968"><ele>1019.2</ele></trkpt>
<trkpt lat="40.672790" lon="-4.101435"><ele>1033.6</ele></trkpt>
<trkpt lat="40.673281" lon="-4.102417"><ele>1041.4</ele></trkpt>
<trkpt lat="40.674923" lon="-4.102776"><ele>1044.2</ele></trkpt>
<trkpt lat="40.677019" lon="-4.102710"><ele>1052.6</ele></trkpt>
<trkpt lat="40.678583" lon="-4.102649"><ele>1070.4</ele></trkpt>
<trkpt lat="40.679080" lon="-4.103057"><ele>1088.9</ele></trkpt>
<trkpt lat="40.678828" lon="-4.104206"><ele>1099.7</ele></trkpt>
<trkpt lat="40.678754" lon="-4.106048"><ele>1106.7</ele></trkpt>
<trkpt lat="40.679689" lon="-4.108235"><ele>1120.4</ele></trkpt>
<trkpt lat="40.681733" lon="-4.110279"><ele>1142.4</ele></trkpt>
<trkpt lat="40.684178" lon="-4.111781"><ele>1163.0</ele></trkpt>
<trkpt lat="40.686038" lon="-4.112612"><ele>1175.1</ele></trkpt>
<trkpt lat="40.686793" lon="-4.112976"><ele>1184.9</ele></trkpt>
<trkpt lat="40.686778" lon="-4.113309"><ele>1202.2</ele></trkpt>
<trkpt lat="40.686924" lon="-4.114070"><ele>1226.4</ele></trkpt>
<trkpt lat="40.688053" lon="-4.115525"><ele>1247.0</ele></trkpt>
<trkpt lat="40.690249" lon="-4.117618"><ele>1259.0</ele></trkpt>
<trkpt lat="40.692792" lon="-4.119997"><ele>1270.1</ele></trkpt>
<trkpt lat="40.694699" lon="-4.122171"><ele>1289.2</ele></trkpt>
<trkpt lat="40.695463" lon="-4.123747"><ele>1313.5</ele></trkpt>
<trkpt lat="40.695435" lon="-4.124604"><ele>1332.2</ele></trkpt>
<trkpt lat="40.695552" lon="-4.124953"><ele>1342.5</ele></trkpt>
<trkpt lat="40.696626" lon="-4.125233"><ele>1353.4</ele></trkpt>
<trkpt lat="40.698724" lon="-4.125901"><ele>1372.6</ele></trkpt>
<trkpt lat="40.701115" lon="-4.127216"><ele>1394.9</ele></trkpt>
<trkpt lat="40.702818" lon="-4.129115"><ele>1409.9</ele></trkpt>
<trkpt lat="40.703342" lon="-4.131238"><ele>1417.0</ele></trkpt>
<trkpt lat="40.703052" lon="-4.133097"><ele>1426.2</ele></trkpt>
<trkpt lat="40.702890" lon="-4.134300"><ele>1443.5</ele></trkpt>
<trkpt lat="40.703659" lon="-4.134737"><ele>1461.7</ele></trkpt>
<trkpt lat="40.705409" lon="-4.134625"><ele>1471.2</ele></trkpt>
<trkpt lat="40.707398" lon="-4.134405"><ele>1473.7</ele></trkpt>
<trkpt lat="40.708649" lon="-4.134534"><ele>1479.7</ele></trkpt>
<trkpt lat="40.708683" lon="-4.135263"><ele>1493.0</ele></trkpt>
<trkpt lat="40.707881" lon="-4.136521"><ele>1505.1</ele></trkpt>
<trkpt lat="40.707191" lon="-4.137943"><ele>1507.3</ele></trkpt>
<trkpt lat="40.707405" lon="-4.139039"><ele>1503.8</ele></trkpt>
<trkpt lat="40.708557" lon="-4.139424"><ele>1505.0</ele></trkpt>
<trkpt lat="40.709895" lon="-4.138994"><ele>1512.3</ele></trkpt>
<trkpt lat="40.710528" lon="-4.138093"><ele>1516.4</ele></trkpt>
<trkpt lat="40.710082" lon="-4.137281"><ele>1510.6</ele></trkpt>
<trkpt lat="40.708955" lon="-4.137014"><ele>1500.9</ele></trkpt>
<trkpt lat="40.708101" lon="-4.137536"><ele>1497.5</ele></trkpt>
<trkpt lat="40.708305" lon="-4.138768"><ele>1499.8</ele></trkpt>
<trkpt lat="40.709587" lon="-4.140341"><ele>1497.4</ele></trkpt>
<trkpt lat="40.711186" lon="-4.141765"><ele>1485.4</ele></trkpt>
<trkpt lat="40.712133" lon="-4.142660"><ele>1471.8</ele></trkpt>
<trkpt lat="40.711981" lon="-4.142931"><ele>1465.6</ele></trkpt>
<trkpt lat="40.711145" lon="-4.142810"><ele>1464.0</ele></trkpt>
<trkpt lat="40.710582" lon="-4.142746"><ele>1456.3</ele></trkpt>
<trkpt lat="40.711068" lon="-4.143189"><ele>1439.9</ele></trkpt>
<trkpt lat="40.712605" lon="-4.144378"><ele>1423.9</ele></trkpt>
<trkpt lat="40.714422" lon="-4.146225"><ele>1416.2</ele></trkpt>
<trkpt lat="40.715553" lon="-4.148356"><ele>1411.6</ele></trkpt>
<trkpt lat="40.715568" lon="-4.150281"><ele>1399.9</ele></trkpt>
<trkpt lat="40.714895" lon="-4.151625"><ele>1380.6</ele></trkpt>
<trkpt lat="40.714496" lon="-4.152301"><ele>1364.0</ele></trkpt>
<trkpt lat="40.715134" lon="-4.152549"><ele>1355.9</ele></trkpt>
<trkpt lat="40.716798" lon="-4.152820"><ele>1349.4</ele></trkpt>
<trkpt lat="40.718705" lon="-4.153560"><ele>1335.0</ele></trkpt>
<trkpt lat="40.719893" lon="-4.155003"><ele>1314.6</ele></trkpt>
<trkpt lat="40.719946" lon="-4.157053"><ele>1298.7</ele></trkpt>
<trkpt lat="40.719308" lon="-4.159328"><ele>1291.4</ele></trkpt>
<trkpt lat="40.718944" lon="-4.161342"><ele>1284.0</ele></trkpt>
<trkpt lat="40.719607" lon="-4.162722"><ele>1268.3</ele></trkpt>
<trkpt lat="40.721269" lon="-4.163391"><ele>1248.4</ele></trkpt>
<trkpt lat="40.723137" lon="-4.163596"><ele>1234.8</ele></trkpt>
<trkpt lat="40.724253" lon="-4.163788"><ele>1229.3</ele></trkpt>
<trkpt lat="40.724216" lon="-4.164414"><ele>1222.2</ele></trkpt>
<trkpt lat="40.723486" lon="-4.165698"><ele>1206.7</ele></trkpt>
<trkpt lat="40.723029" lon="-4.167537"><ele>1188.9</ele></trkpt>
<trkpt lat="40.723589" lon="-4.169544"><ele>1179.1</ele></trkpt>
<trkpt lat="40.725120" lon="-4.171233"><ele>1176.4</ele></trkpt>
<trkpt lat="40.726821" lon="-4.172237"><ele>1170.6</ele></trkpt>
<trkpt lat="40.727736" lon="-4.172486"><ele>1156.8</ele></trkpt>
<trkpt lat="40.727482" lon="-4.172234"><ele>1143.0</ele></trkpt>
<trkpt lat="40.726531" lon="-4.171936"><ele>1138.1</ele></trkpt>
<trkpt lat="40.725854" lon="-4.172035"><ele>1139.3</ele></trkpt>
<trkpt lat="40.726182" lon="-4.172747"><ele>1136.0</ele></trkpt>
<trkpt lat="40.727455" lon="-4.173962"><ele>1125.6</ele></trkpt>
<trkpt lat="40.728859" lon="-4.175289"><ele>1117.2</ele></trkpt>
<trkpt lat="40.729446" lon="-4.176239"><ele>1118.6</ele></trkpt>
<trkpt lat="40.728846" lon="-4.176454"><ele>1124.7</ele></trkpt>
<trkpt lat="40.727544" lon="-4.175833"><ele>1124.9</ele></trkpt>
<trkpt lat="40.726508" lon="-4.174518"><ele>1117.7</ele></trkpt>
<trkpt lat="40.726464" lon="-4.172978"><ele>1113.2</ele></trkpt>
<trkpt lat="40.727340" lon="-4.171667"><ele>1117.2</ele></trkpt>
<trkpt lat="40.728319" lon="-4.170816"><ele>1122.9</ele></trkpt>
<trkpt lat="40.728463" lon="-4.170323"><ele>1120.5</ele></trkpt>
<trkpt lat="40.727424" lon="-4.169810"><ele>1112.0</ele></trkpt>
<trkpt lat="40.725710" lon="-4.168808"><ele>1107.9</ele></trkpt>
<trkpt lat="40.724301" lon="-4.166982"><ele>1112.1</ele></trkpt>
<trkpt lat="40.723913" lon="-4.164296"><ele>1116.0</ele></trkpt>
<trkpt lat="40.724457" lon="-4.161034"><ele>1111.4</ele></trkpt>
<trkpt lat="40.725108" lon="-4.157675"><ele>1102.1</ele></trkpt>
<trkpt lat="40.724932" lon="-4.154673"><ele>1098.9</ele></trkpt>
<trkpt lat="40.723598" lon="-4.152249"><ele>1103.2</ele></trkpt>
<trkpt lat="40.721625" lon="-4.150294"><ele>1105.5</ele></trkpt>
<trkpt lat="40.719999" lon="-4.148426"><ele>1098.9</ele></trkpt>
<trkpt lat="40.719422" lon="-4.146175"><ele>1089.6</ele></trkpt>
<trkpt lat="40.719790" lon="-4.143214"><ele>1087.5</ele></trkpt>
<trkpt lat="40.720267" lon="-4.139512"><ele>1092.0</ele></trkpt>
<trkpt lat="40.719927" lon="-4.135362"><ele>1092.6</ele></trkpt>
<trkpt lat="40.718451" lon="-4.131245"><ele>1084.6</ele></trkpt>
<trkpt lat="40.716377" lon="-4.127611"><ele>1075.8</ele></trkpt>
<trkpt lat="40.714688" lon="-4.124674"><ele>1075.1</ele></trkpt>
<trkpt lat="40.714078" lon="-4.122317"><ele>1079.6</ele></trkpt>
<trkpt lat="40.714424" lon="-4.120153"><ele>1078.8</ele></trkpt>
<trkpt lat="40.714882" lon="-4.117713"><ele>1069.9</ele></trkpt>
<trkpt lat="40.714532" lon="-4.114676"><ele>1062.1</ele></trkpt>
<trkpt lat="40.713072" lon="-4.111019"><ele>1063.0</ele></trkpt>
<trkpt lat="40.711051" lon="-4.107042"><ele>1067.5</ele></trkpt>
<trkpt lat="40.709456" lon="-4.103227"><ele>1065.4</ele></trkpt>
<trkpt lat="40.708967" lon="-4.100020"><ele>1056.1</ele></trkpt>
<trkpt lat="40.709446" lon="-4.097630"><ele>1049.9</ele></trkpt>
<trkpt lat="40.710041" lon="-4.095930"><ele>1052.5</ele></trkpt>
<trkpt lat="40.709836" lon="-4.094529"><ele>1057.0</ele></trkpt>
<trkpt lat="40.708546" lon="-4.092960"><ele>1053.8</ele></trkpt>
<trkpt lat="40.706734" lon="-4.090906"><ele>1044.8</ele></trkpt>
<trkpt lat="40.705388" lon="-4.088354"><ele>1040.6</ele></trkpt>
<trkpt lat="40.705176" lon="-4.085609"><ele>1044.9</ele></trkpt>
<trkpt lat="40.705942" lon="-4.083156"><ele>1049.4</ele></trkpt>
<trkpt lat="40.706829" lon="-4.081438"><ele>1045.5</ele></trkpt>
<trkpt lat="40.706924" lon="-4.080653"><ele>1037.4</ele></trkpt>
<trkpt lat="40.705960" lon="-4.080670"><ele>1035.6</ele></trkpt>
<trkpt lat="40.704512" lon="-4.081092"><ele>1041.7</ele></trkpt>
<trkpt lat="40.703570" lon="-4.081454"><ele>1046.0</ele></trkpt>
<trkpt lat="40.703780" lon="-4.081422"><ele>1041.9</ele></trkpt>
<trkpt lat="40.704830" lon="-4.080726"><ele>1035.4</ele></trkpt>
<trkpt lat="40.705814" lon="-4.079585"><ele>1036.6</ele></trkpt>
<trkpt lat="40.705830" lon="-4.078477"><ele>1044.8</ele></trkpt>
<trkpt lat="40.704626" lon="-4.077831"><ele>1049.7</ele></trkpt>
<trkpt lat="40.702797" lon="-4.077828"><ele>1046.2</ele></trkpt>
<trkpt lat="40.701333" lon="-4.078320"><ele>1042.2</ele></trkpt>
<trkpt lat="40.700880" lon="-4.078896"><ele>1046.6</ele></trkpt>
<trkpt lat="40.701253" lon="-4.079081"><ele>1056.7</ele></trkpt>
<trkpt lat="40.701579" lon="-4.078561"><ele>1061.6</ele></trkpt>
<trkpt lat="40.700963" lon="-4.077330"><ele>1058.6</ele></trkpt>
<trkpt lat="40.699170" lon="-4.075695"><ele>1056.8</ele></trkpt>
<trkpt lat="40.696806" lon="-4.074135"><ele>1064.0</ele></trkpt>
<trkpt lat="40.694864" lon="-4.073076"><ele>1075.0</ele></trkpt>
<trkpt lat="40.693977" lon="-4.072693"><ele>1079.4</ele></trkpt>
<trkpt lat="40.693942" lon="-4.072826"><ele>1076.7</ele></trkpt>
<trkpt lat="40.693879" lon="-4.073064"><ele>1077.0</ele></trkpt>
<trkpt lat="40.692901" lon="-4.072931"><ele>1086.2</ele></trkpt>
<trkpt lat="40.690789" lon="-4.072120"><ele>1097.4</ele></trkpt>
<trkpt lat="40.688162" lon="-4.070633"><ele>1100.7</ele></trkpt>
<trkpt lat="40.686012" lon="-4.068783"><ele>1098.2</ele></trkpt>
<trkpt lat="40.684960" lon="-4.067051"><ele>1100.3</ele></trkpt>
<trkpt lat="40.684786" lon="-4.065859"><ele>1110.9</ele></trkpt>
<trkpt lat="40.684605" lon="-4.065373"><ele>1121.3</ele></trkpt>
<trkpt lat="40.683535" lon="-4.065427"><ele>1123.3</ele></trkpt>
<trkpt lat="40.681374" lon="-4.065605"><ele>1120.7</ele></trkpt>
<trkpt lat="40.678753" lon="-4.065434"><ele>1124.2</ele></trkpt>
<trkpt lat="40.676665" lon="-4.064610"><ele>1135.4</ele></trkpt>
<trkpt lat="40.675718" lon="-4.063146"><ele>1144.5</ele></trkpt>
<trkpt lat="40.675676" lon="-4.061360"><ele>1144.6</ele></trkpt>
<trkpt lat="40.675645" lon="-4.059735"><ele>1141.9</ele></trkpt>
<trkpt lat="40.674753" lon="-4.058689"><ele>1146.4</ele></trkpt>
<trkpt lat="40.672813" lon="-4.058379"><ele>1157.4</ele></trkpt>
<trkpt lat="40.670469" lon="-4.058633"><ele>1164.3</ele></trkpt>
<trkpt lat="40.668714" lon="-4.059029"><ele>1162.4</ele></trkpt>
<trkpt lat="40.668141" lon="-4.059097"><ele>1159.4</ele></trkpt>
<trkpt lat="40.668500" lon="-4.058541"><ele>1164.4</ele></trkpt>
<trkpt lat="40.668890" lon="-4.057378"><ele>1174.3</ele></trkpt>
<trkpt lat="40.668445" lon="-4.055936"><ele>1178.5</ele></trkpt>
<trkpt lat="40.666996" lon="-4.054697"><ele>1174.3</ele></trkpt>
<trkpt lat="40.665199" lon="-4.054075"><ele>1170.9</ele></trkpt>
<trkpt lat="40.664047" lon="-4.054220"><ele>1175.7</ele></trkpt>
<trkpt lat="40.664118" lon="-4.054952"><ele>1183.8</ele></trkpt>
<trkpt lat="40.665148" lon="-4.055846"><ele>1184.7</ele></trkpt>
<trkpt lat="40.666227" lon="-4.056432"><ele>1178.0</ele></trkpt>
</trkseg></trk>
</gpx>
